OBJECT_NAME,OBJECT_ID,EPOCH,MEAN_MOTION,ECCENTRICITY,INCLINATION,RA_OF_ASC_NODE,ARG_OF_PERICENTER,MEAN_ANOMALY,EPHEMERIS_TYPE,CLASSIFICATION_TYPE,NORAD_CAT_ID,ELEMENT_SET_NO,REV_AT_EPOCH,BSTAR,MEAN_MOTION_DOT,MEAN_MOTION_DDOT
BEIDOU-2 IGSO-5 (C10),2011-073A,2026-07-02T17:30:18.330912,1.00270596,.01145273,47.6496,271.3544,222.0502,141.5350,0,U,37948,999,5329,0,-.128E-5,0
LUCH 5A (SDCM/PRN 140),2011-074B,2026-07-13T12:57:06.624864,1.00272913,.00025721,8.8184,73.4192,59.9903,159.2622,0,U,37951,999,5331,0,-.61E-6,0
BEIDOU-2 G5 (C05),2012-008A,2026-07-13T15:27:15.065568,1.00269735,.00073346,3.6363,69.5248,269.0487,243.4256,0,U,38091,999,5263,0,.5E-6,0
BEIDOU-2 M3 (C11),2012-018A,2026-07-13T11:59:29.452416,1.86229839,.00209873,55.7337,303.9888,272.3154,87.4648,0,U,38250,999,9643,0,-.69E-6,0
BEIDOU-2 M4 (C12),2012-018B,2026-07-13T10:22:03.822816,1.86229496,.00120872,55.6338,303.2030,272.4400,87.4432,0,U,38251,999,9643,0,-.68E-6,0
SES-5 (EGNOS/PRN 136),2012-036A,2026-07-13T13:29:08.218752,1.00271535,.00019166,0.0463,319.1129,155.6970,23.8864,0,U,38652,999,4472,0,.3E-6,0
BEIDOU-2 M6 (C14),2012-050B,2026-07-12T01:37:29.166816,1.86230839,.00129868,56.5659,62.0719,1.2706,358.8013,0,U,38775,999,9377,0,-.42E-6,0
GSAT-10 (GAGAN/PRN 128),2012-051B,2026-07-13T13:51:34.380000,1.00271356,.00073807,0.0962,265.1257,188.2195,128.9737,0,U,38779,999,5036,0,-.168E-5,0
GPS BIIF-3  (PRN 24),2012-053A,2026-07-13T05:47:54.813696,2.00567855,.01818861,53.5894,142.5319,66.1866,295.6647,0,U,38833,999,9996,0,.2E-7,0
GSAT0103 (GALILEO-FM3),2012-055A,2026-07-13T06:51:10.050336,1.70473329,.00037559,55.8215,100.8292,311.8113,48.1723,0,U,38857,999,8545,0,-.3E-6,0
BEIDOU-2 G6 (C02),2012-059A,2026-07-13T13:51:49.356576,1.00274089,.00088133,4.4847,73.2341,327.2308,182.9135,0,U,38953,999,5017,0,-.183E-5,0
LUCH 5B (SDCM/PRN 125),2012-061A,2026-07-13T09:57:48.377664,1.00270517,.00038752,10.5372,49.6142,146.5269,228.3370,0,U,38977,999,4987,0,-.148E-5,0
COSMOS 2485 (747),2013-019A,2026-07-13T04:31:30.916128,2.13103251,.00226439,65.4339,72.7327,231.1311,128.7381,0,U,39155,999,10283,0,-.11E-6,0
GPS BIIF-4  (PRN 27),2013-023A,2026-07-13T02:37:24.159360,2.00563293,.01413919,54.4844,267.9166,51.1125,310.2162,0,U,39166,999,9640,0,.9E-7,0
IRNSS-1A,2013-034A,2026-07-10T17:17:25.712736,1.00281941,.0017567,35.7704,63.5328,183.4462,356.2994,0,U,39199,999,4760,0,.47E-6,0
GPS BIIF-5  (PRN 30),2014-008A,2026-07-13T02:39:59.766624,2.00561396,.0084119,53.6575,148.2624,231.5389,127.6629,0,U,39533,999,9020,0,.1E-6,0
ASTRA 5B (EGNOS/PRN 123),2014-011B,2026-07-13T11:51:56.058048,1.00273336,.00019799,0.0808,299.9472,189.5438,3.3742,0,U,39617,999,4493,0,.134E-5,0
COSMOS 2492 (754),2014-012A,2026-07-12T16:16:30.344736,2.13103273,.00103077,65.2814,313.0702,318.3829,41.5439,0,U,39620,999,9578,0,-.63E-6,0
IRNSS-1B,2014-017A,2026-07-12T17:11:35.649312,1.00275003,.00223228,28.8793,239.9624,191.7120,171.9393,0,U,39635,999,4505,0,.145E-5,0
LUCH 5V (SDCM/PRN 141),2014-023A,2026-07-13T13:54:49.068576,1.00274315,.00020721,5.1945,69.4625,82.2563,83.1453,0,U,39727,999,4462,0,-.277E-5,0
GPS BIIF-6  (PRN 06),2014-026A,2026-07-13T09:17:27.307104,2.00558977,.00381295,56.4842,330.4979,325.8384,33.9109,0,U,39741,999,8906,0,-.91E-6,0
COSMOS 2500 (755),2014-032A,2026-07-13T07:36:12.962016,2.13105887,.00081989,65.2160,312.7937,189.8458,170.1451,0,U,40001,999,9401,0,-.62E-6,0
GPS BIIF-7  (PRN 09),2014-045A,2026-07-11T23:35:38.340960,2.00560003,.00343017,55.3689,87.4770,118.3497,242.0334,0,U,40105,999,8657,0,-.37E-6,0
GSAT0201 (GALILEO 5),2014-050A,2026-07-12T17:58:54.893280,1.85519397,.1678293,48.8466,272.3871,180.4210,179.4845,0,U,40128,999,7879,0,-.15E-6,0
GSAT0202 (GALILEO 6),2014-050B,2026-07-11T09:18:20.936448,1.85520566,.16791779,48.8660,271.5287,181.0429,178.6225,0,U,40129,999,8093,0,-.14E-6,0
IRNSS-1C,2014-061A,2026-07-12T21:07:20.292672,1.00272709,.00221221,6.5810,88.4431,5.2065,236.9875,0,U,40269,999,4294,0,-.17E-5,0
GPS BIIF-8  (PRN 03),2014-068A,2026-07-12T20:21:46.149120,2.00552961,.00673828,57.0052,29.9670,72.2015,288.5875,0,U,40294,999,8572,0,-.54E-6,0
COSMOS 2501 (702K),2014-075A,2026-07-12T04:06:50.105664,2.13101266,.00226861,63.6181,189.5071,212.6526,147.2271,0,U,40315,999,9038,0,.94E-6,0
GPS BIIF-9  (PRN 26),2015-013A,2026-07-12T23:45:34.363584,2.00549767,.01102708,53.1662,203.1104,40.3597,320.4905,0,U,40534,999,8234,0,.79E-6,0
GSAT0203 (GALILEO 7),2015-017A,2026-07-10T02:08:55.601088,1.70476121,.00025033,56.7788,340.9723,258.1316,101.8369,0,U,40544,999,6959,0,-.8E-6,0
GSAT0204 (GALILEO 8),2015-017B,2026-07-13T06:40:44.453856,1.70475614,.00027384,56.7839,340.9040,234.2000,125.7616,0,U,40545,999,3269,0,-.94E-6,0
