BEIDOU-2 IGSO-5         
1 37948U 11073A   26183.72937883 -.00000128  00000+0  00000+0 0  9990
2 37948  47.6496 271.3544 0114527 222.0502 141.5350  1.00270596 53296
LUCH-5A                 
1 37951U 11074B   26194.53966001 -.00000061  00000+0  00000+0 0  9996
2 37951   8.8184  73.4192 0002572  59.9903 159.2622  1.00272913 53317
BEIDOU-2 G5             
1 38091U 12008A   26194.64392437  .00000050  00000+0  00000+0 0  9995
2 38091   3.6363  69.5248 0007334 269.0487 243.4256  1.00269735 52636
BEIDOU-2 M3             
1 38250U 12018A   26194.49964644 -.00000069  00000+0  00000+0 0  9992
2 38250  55.7337 303.9888 0020987 272.3154  87.4648  1.86229839 96436
BEIDOU-2 M4             
1 38251U 12018B   26194.43198869 -.00000068  00000+0  00000+0 0  9994
2 38251  55.6338 303.2030 0012087 272.4400  87.4432  1.86229496 96436
SES-5                   
1 38652U 12036A   26194.56190068  .00000030  00000+0  00000+0 0  9994
2 38652   0.0463 319.1129 0001916 155.6970  23.8864  1.00271535 44727
BEIDOU-2 M6             
1 38775U 12050B   26193.06769869 -.00000042  00000+0  00000+0 0  9995
2 38775  56.5659  62.0719 0012986   1.2706 358.8013  1.86230839 93779
GSAT-10                 
1 38779U 12051B   26194.57748125 -.00000168  00000+0  00000+0 0  9998
2 38779   0.0962 265.1257 0007380 188.2195 128.9737  1.00271356 50369
NAVSTAR 67 (USA 239)    
1 38833U 12053A   26194.24160664  .00000002  00000+0  00000+0 0  9997
2 38833  53.5894 142.5319 0181886  66.1866 295.6647  2.00567855 99961
GSAT0103 (GALILEO-FM3)  
1 38857U 12055A   26194.28553299 -.00000030  00000+0  00000+0 0  9991
2 38857  55.8215 100.8292 0003755 311.8113  48.1723  1.70473329 85452
BEIDOU-2 G6             
1 38953U 12059A   26194.57765459 -.00000183  00000+0  00000+0 0  9996
2 38953   4.4847  73.2341 0008813 327.2308 182.9135  1.00274089 50175
LUCH-5B                 
1 38977U 12061A   26194.41514326 -.00000148  00000+0  00000+0 0  9994
2 38977  10.5372  49.6142 0003875 146.5269 228.3370  1.00270517 49872
COSMOS 2485 [GLONASS-M] 
1 39155U 13019A   26194.18855227 -.00000011  00000+0  00000+0 0  9998
2 39155  65.4339  72.7327 0022643 231.1311 128.7381  2.13103251102834
NAVSTAR 68 (USA 242)    
1 39166U 13023A   26194.10930740  .00000009  00000+0  00000+0 0  9997
2 39166  54.4844 267.9166 0141391  51.1125 310.2162  2.00563293 96401
IRNSS-1A                
1 39199U 13034A   26191.72043649  .00000047  00000+0  00000+0 0  9995
2 39199  35.7704  63.5328 0017567 183.4462 356.2994  1.00281941 47601
NAVSTAR 69 (USA 248)    
1 39533U 14008A   26194.11110841  .00000010  00000+0  00000+0 0  9994
2 39533  53.6575 148.2624 0084119 231.5389 127.6629  2.00561396 90203
ASTRA 5B                
1 39617U 14011B   26194.49439882  .00000134  00000+0  00000+0 0  9998
2 39617   0.0808 299.9472 0001979 189.5438   3.3742  1.00273336 44934
COSMOS 2492 [GLONASS-M] 
1 39620U 14012A   26193.67812899 -.00000063  00000+0  00000+0 0  9997
2 39620  65.2814 313.0702 0010307 318.3829  41.5439  2.13103273 95786
IRNSS-1B                
1 39635U 14017A   26193.71638483  .00000145  00000+0  00000+0 0  9998
2 39635  28.8793 239.9624 0022322 191.7120 171.9393  1.00275003 45057
LUCH-5V                 
1 39727U 14023A   26194.57973459 -.00000277  00000+0  00000+0 0  9994
2 39727   5.1945  69.4625 0002072  82.2563  83.1453  1.00274315 44626
NAVSTAR 70 (USA 251)    
1 39741U 14026A   26194.38712161 -.00000091  00000+0  00000+0 0  9997
2 39741  56.4842 330.4979 0038129 325.8384  33.9109  2.00558977 89067
COSMOS 2500 [GLONASS-M] 
1 40001U 14032A   26194.31681669 -.00000062  00000+0  00000+0 0  9994
2 40001  65.2160 312.7937 0008198 189.8458 170.1451  2.13105887 94016
NAVSTAR 71 (USA 256)    
1 40105U 14045A   26192.98308265 -.00000037  00000+0  00000+0 0  9994
2 40105  55.3689  87.4770 0034301 118.3497 242.0334  2.00560003 86575
GSAT0201 (GALILEO 5)    
1 40128U 14050A   26193.74924645 -.00000015  00000+0  00000+0 0  9992
2 40128  48.8466 272.3871 1678293 180.4210 179.4845  1.85519397 78792
GSAT0202 (GALILEO 6)    
1 40129U 14050B   26192.38774232 -.00000014  00000+0  00000+0 0  9996
2 40129  48.8660 271.5287 1679177 181.0429 178.6225  1.85520566 80934
IRNSS-1C                
1 40269U 14061A   26193.88009598 -.00000170  00000+0  00000+0 0  9998
2 40269   6.5810  88.4431 0022122   5.2065 236.9875  1.00272709 42945
NAVSTAR 72 (USA 258)    
1 40294U 14068A   26193.84845080 -.00000054  00000+0  00000+0 0  9994
2 40294  57.0052  29.9670 0067382  72.2015 288.5875  2.00552961 85721
COSMOS 2501 [GLONASS-K] 
1 40315U 14075A   26193.17141326  .00000094  00000+0  00000+0 0  9997
2 40315  63.6181 189.5071 0022686 212.6526 147.2271  2.13101266 90385
NAVSTAR 73 (USA 260)    
1 40534U 15013A   26193.98998106  .00000079  00000+0  00000+0 0  9991
2 40534  53.1662 203.1104 0110270  40.3597 320.4905  2.00549767 82341
GSAT0203 (GALILEO 7)    
1 40544U 15017A   26191.08953242 -.00000080  00000+0  00000+0 0  9990
2 40544  56.7788 340.9723 0002503 258.1316 101.8369  1.70476121 69590
GSAT0204 (GALILEO 8)    
1 40545U 15017B   26194.27829229 -.00000094  00000+0  00000+0 0  9997
2 40545  56.7839 340.9040 0002738 234.2000 125.7616  1.70475614 32692
